BEESAT-4                
1 41619U 16040W   21282.70081289  .00004395  00000-0  17250-3 0  9991
2 41619  97.2563 335.5568 0008727 290.0755  69.9545 15.26200518282439
CAS-2T & KS-1Q          
1 41847U 16066G   21282.77893927  .00000264  00000-0  50724-4 0  9994
2 41847  98.5887 342.3146 0364107 238.9816 117.5142 14.38248053258310
NAYIF-1 (EO-88)         
1 42017U 17008BX  21282.66632653  .00005106  00000-0  18411-3 0  9992
2 42017  97.3044 348.2037 0007339  70.8245 289.3789 15.28948857258703
ZHUHAI-1 02 (CAS-4B)    
1 42759U 17034B   21283.10444390  .00001189  00000-0  84312-4 0  9994
2 42759  43.0178 270.6854 0007206 168.6550 276.0725 15.10427413238482
ZHUHAI-1 01 (CAS-4A)    
1 42761U 17034D   21283.08833044  .00001237  00000-0  86996-4 0  9996
2 42761  43.0175 269.7446 0007655 170.4464 271.9566 15.10514508238480
MAX VALIER SAT          
1 42778U 17036P   21282.63039627  .00002773  00000-0  11692-3 0  9997
2 42778  97.2428 327.4518 0013176 128.8562 231.3853 15.24049730238678
RADFXSAT (FOX-1B)       
1 43017U 17073E   21282.95673363  .00001746  00000-0  13982-3 0  9994
2 43017  97.6940 182.3435 0252624 286.8468  70.5180 14.79828060210055
FOX-1D (AO-92)          
1 43137U 18004AC  21283.18978139  .00003560  00000-0  14216-3 0  9994
2 43137  97.3971 356.0246 0009287 157.2022 202.9630 15.25767713208148
DIWATA-2B               
1 43678U 18084H   21283.15256170 -.00000027  00000-0  30869-5 0  9993
2 43678  97.9386  49.1217 0010730  39.1832 321.0144 14.91801470160538
ES'HAIL 2               
1 43700U 18090A   21282.75979084  .00000140  00000-0  00000-0 0  9991
2 43700   0.0182 226.8556 0002042 349.5069 101.5593  1.00269783 10512
FOX-1CLIFF (AO-95)      
1 43770U 18099N   21283.14022245  .00001266  00000-0  11929-3 0  9994
2 43770  97.6545 350.7390 0015301  39.6542 320.5795 14.95465276155590
ITASAT 1                
1 43786U 18099AE  21282.76995498  .00000277  00000-0  29933-4 0  9993
2 43786  97.6567 351.1351 0015851  33.1563 327.0649 14.95740526155577
JY1SAT (JO-97)          
1 43803U 18099AX  21282.71399885  .00000615  00000-0  59816-4 0  9995
2 43803  97.6525 350.8211 0015644  32.9172 327.3020 14.96013659155572
UWE-4                   
1 43880U 18111E   21282.68767560  .00001570  00000-0  14114-3 0  9992
2 43880  97.6768 188.4197 0013894  82.6271 277.6529 14.97024084152170
NEXUS (FO-99)           
1 43937U 19003F   21283.07334598  .00003984  00000-0  15497-3 0  9997
2 43937  97.1650 321.6322 0021684 329.8074  30.1914 15.26364457151748
PSAT2 (NO-104)          
1 44354U 19036R   21282.76446641  .00030089  00000-0  38067-3 0  9999
2 44354  28.5261  82.7649 0311045  78.9019 284.6383 15.17410555126333
BRICSAT2 (NO-103)       
1 44355U 19036S   21282.58621023  .00086195 -46036-5  81096-3 0  9993
2 44355  28.5266  17.5972 0229196 184.6801 175.1642 15.38981296126973
JAISAT-1                
1 44419U 19038F   21282.65089527  .00003416  00000-0  19011-3 0  9999
2 44419  97.6023 247.0357 0019063 279.6202  80.2876 15.14196749125079
DUCHIFAT-3              
1 44854U 19089C   21282.98722873  .00001152  00000-0  97913-4 0  9995
2 44854  36.9663 143.2235 0009333 339.9399  20.0969 14.99680074100301
CAS-6 (TO-108)          
1 44881U 19093C   21283.08542076  .00000147  00000-0  25544-4 0  9991
2 44881  97.9173   0.6261 0013737 281.9263  78.0407 14.81489442 97704
RS-44 & BREEZE-KM R/B   
1 44909U 19096E   21282.77331382  .00000024  00000-0  51662-4 0  9990
2 44909  82.5252  36.8385 0217483 185.5741 174.2938 12.79711165 83444
ORBITAL FACTORY 2 (OF-2)
1 45113U 19071C   21283.15668258  .00007527  00000-0  21565-3 0  9992
2 45113  51.6410 200.9701 0011169 352.8145   7.2676 15.36883420 94807
HUSKYSAT-1 (HO-107)     
1 45119U 19071J   21282.38843252  .00007385  00000-0  21232-3 0  9994
2 45119  51.6411 204.0814 0010569 346.3665  13.7031 15.36809986 94680
BY70-2                  
1 45857U 20042B   21283.12090914  .00002244  00000-0  32264-3 0  9991
2 45857  97.9778 357.6656 0011010 196.5296 163.5562 14.77372422 68479
SALSAT                  
1 46495U 20068K   21282.93115577  .00000146  00000-0  15235-4 0  9998
2 46495  97.7001 219.7900 0018463  48.2121 312.0674 15.03578807 56538
BY70-3                  
1 46839U 20079N   21283.18031243  .00006784  00000-0  20408-3 0  9998
2 46839  97.2315 354.7666 0008111 145.0967 299.1143 15.34662966 51798
RADFXSAT-2 (AO-109)     
1 47311U 21002C   21282.80765422  .00003017  00000-0  13983-3 0  9998
2 47311  60.6855 222.9839 0040500 106.1502 254.4048 15.22118840 40279
UVSQ-SAT                
1 47438U 21006AB  21282.70940916  .00002346  00000-0  13462-3 0  9990
2 47438  97.4749 341.8334 0014086  67.2032 293.0686 15.13451502 39332
DIY-1 (ARDUIQUBE)       
1 47963U 21022AH  21282.65960023  .00004952  00000-0  32542-3 0  9991
2 47963  97.5464 182.9445 0017481 276.4992  83.4246 15.07937837 29108
